{
    "links": {
        "self": "http://www.neowsapp.com/rest/v1/neo/3827157?api_key=iIulBulltgU6a56xZRHN4H3l9WmuAYTsLGpBGhQ2"
    },
    "id": "3827157",
    "neo_reference_id": "3827157",
    "name": "(2018 RQ)",
    "designation": "2018 RQ",
    "nasa_jpl_url": "http://ssd.jpl.nasa.gov/sbdb.cgi?sstr=3827157",
    "absolute_magnitude_h": 24.8,
    "estimated_diameter": {
        "kilometers": {
            "estimated_diameter_min": 0.0291443905,
            "estimated_diameter_max": 0.0651688382
        },
        "meters": {
            "estimated_diameter_min": 29.1443904535,
            "estimated_diameter_max": 65.1688382168
        },
        "miles": {
            "estimated_diameter_min": 0.018109479,
            "estimated_diameter_max": 0.0404940262
        },
        "feet": {
            "estimated_diameter_min": 95.6180819754,
            "estimated_diameter_max": 213.8085311752
        }
    },
    "is_potentially_hazardous_asteroid": false,
    "close_approach_data": [
        {
            "close_approach_date": "2018-09-07",
            "close_approach_date_full": "2018-Sep-07 13:55",
            "epoch_date_close_approach": 1536328500000,
            "relative_velocity": {
                "kilometers_per_second": "13.2886520643",
                "kilometers_per_hour": "47839.147431475",
                "miles_per_hour": "29725.3858026295"
            },
            "miss_distance": {
                "astronomical": "0.032089082",
                "lunar": "12.482652898",
                "kilometers": "4800458.31745534",
                "miles": "2982866.481110092"
            },
            "orbiting_body": "Earth"
        }
    ],
    "orbital_data": {
        "orbit_id": "2",
        "orbit_determination_date": "2018-09-07 06:58:23",
        "first_observation_date": "2018-09-05",
        "last_observation_date": "2018-09-07",
        "data_arc_in_days": 2,
        "observations_used": 31,
        "orbit_uncertainty": "8",
        "minimum_orbit_intersection": ".0159249",
        "jupiter_tisserand_invariant": "3.224",
        "epoch_osculation": "2458367.5",
        "eccentricity": ".6288227759020094",
        "semi_major_axis": "2.396726276082633",
        "inclination": "3.502177828489133",
        "ascending_node_longitude": "333.4170481907472",
        "orbital_period": "1355.270804242924",
        "perihelion_distance": ".8896102060790658",
        "perihelion_argument": "60.95480282488859",
        "aphelion_distance": "3.9038423460862",
        "perihelion_time": "2458404.485436099187",
        "mean_anomaly": "350.1755745390345",
        "mean_motion": ".2656295692882587",
        "equinox": "J2000",
        "orbit_class": {
            "orbit_class_type": "APO",
            "orbit_class_description": "Near-Earth asteroid orbits which cross the Earth’s orbit similar to that of 1862 Apollo",
            "orbit_class_range": "a (semi-major axis) > 1.0 AU; q (perihelion) < 1.017 AU"
        }
    },
    "is_sentry_object": false
}